{
    "links": {
        "self": "http://www.neowsapp.com/rest/v1/neo/3789447?api_key=iIulBulltgU6a56xZRHN4H3l9WmuAYTsLGpBGhQ2"
    },
    "id": "3789447",
    "neo_reference_id": "3789447",
    "name": "(2017 WT)",
    "designation": "2017 WT",
    "nasa_jpl_url": "http://ssd.jpl.nasa.gov/sbdb.cgi?sstr=3789447",
    "absolute_magnitude_h": 25.8,
    "estimated_diameter": {
        "kilometers": {
            "estimated_diameter_min": 0.0183888672,
            "estimated_diameter_max": 0.0411187571
        },
        "meters": {
            "estimated_diameter_min": 18.388867207,
            "estimated_diameter_max": 41.1187571041
        },
        "miles": {
            "estimated_diameter_min": 0.0114263088,
            "estimated_diameter_max": 0.0255500032
        },
        "feet": {
            "estimated_diameter_min": 60.3309310875,
            "estimated_diameter_max": 134.9040630575
        }
    },
    "is_potentially_hazardous_asteroid": false,
    "close_approach_data": [
        {
            "close_approach_date": "2017-11-10",
            "close_approach_date_full": "2017-Nov-10 17:36",
            "epoch_date_close_approach": 1510335360000,
            "relative_velocity": {
                "kilometers_per_second": "15.4343810434",
                "kilometers_per_hour": "55563.7717564128",
                "miles_per_hour": "34525.1669560888"
            },
            "miss_distance": {
                "astronomical": "0.0034587893",
                "lunar": "1.3454690377",
                "kilometers": "517427.512058791",
                "miles": "321514.5471656758"
            },
            "orbiting_body": "Earth"
        },
        {
            "close_approach_date": "2017-11-10",
            "close_approach_date_full": "2017-Nov-10 19:28",
            "epoch_date_close_approach": 1510342080000,
            "relative_velocity": {
                "kilometers_per_second": "16.4161365459",
                "kilometers_per_hour": "59098.091565335",
                "miles_per_hour": "36721.2558395828"
            },
            "miss_distance": {
                "astronomical": "0.0046526305",
                "lunar": "1.8098732645",
                "kilometers": "696023.612697035",
                "miles": "432489.018147683"
            },
            "orbiting_body": "Moon"
        }
    ],
    "orbital_data": {
        "orbit_id": "2",
        "orbit_determination_date": "2017-11-20 06:21:54",
        "first_observation_date": "2017-11-16",
        "last_observation_date": "2017-11-19",
        "data_arc_in_days": 3,
        "observations_used": 32,
        "orbit_uncertainty": "8",
        "minimum_orbit_intersection": ".00336799",
        "jupiter_tisserand_invariant": "3.291",
        "epoch_osculation": "2458076.5",
        "eccentricity": ".6465697198576342",
        "semi_major_axis": "2.279983751555203",
        "inclination": "2.236568792979937",
        "ascending_node_longitude": "223.1666094420599",
        "orbital_period": "1257.465431437807",
        "perihelion_distance": ".8058152960321976",
        "perihelion_argument": "126.7989388960311",
        "aphelion_distance": "3.75415220707821",
        "perihelion_time": "2458029.737662632868",
        "mean_anomaly": "13.38759780689855",
        "mean_motion": ".2862901762542848",
        "equinox": "J2000",
        "orbit_class": {
            "orbit_class_type": "APO",
            "orbit_class_description": "Near-Earth asteroid orbits which cross the Earth’s orbit similar to that of 1862 Apollo",
            "orbit_class_range": "a (semi-major axis) > 1.0 AU; q (perihelion) < 1.017 AU"
        }
    },
    "is_sentry_object": false
}